SHIYAN-1 (SY-1)         
1 28220U 04012A   26068.73650539  .00016393  00000+0  54854-3 0  9991
2 28220  97.8764 140.5238 0005873  23.6952 336.4557 15.31043463195862
STARLINK-32511          
1 61727U 24196W   26068.40846629 -.00000347  00000+0  41249-6 0  9996
2 61727  53.1604 102.6371 0001462  75.5424 284.5739 15.30187767 77113
